{"features":[{"geometry":{"type":"Polygon","coordinates":[[[7.387,6.037],[7.339,6.042],[7.255,5.965],[7.269,5.92],[7.396,5.908],[7.382,5.706],[7.432,5.609],[7.292,5.328],[7.241,4.994],[7.185,4.982],[7.195,4.953],[7.14,4.901],[7.215,4.857],[7.416,4.867],[7.489,4.822],[7.491,4.959],[7.463,4.973],[7.547,5.088],[7.535,5.304],[7.665,5.344],[7.678,5.381],[7.624,5.382],[7.657,5.446],[7.7,5.432],[7.694,5.516],[7.757,5.51],[7.793,5.44],[7.865,5.418],[7.878,5.367],[7.988,5.363],[7.908,5.536],[7.915,5.655],[7.804,5.745],[7.786,5.805],[7.533,5.838],[7.498,5.908],[7.54,5.907],[7.547,5.995],[7.511,6.021],[7.416,6.006],[7.387,6.037]]],"crs":null},"type":"Feature","properties":{"adm1_pcode":"NG001","adm1_en":"Abia"}},{"geometry":{"type":"Polygon","coordinates":[[[13.621,10.948],[13.458,10.873],[13.341,10.926],[13.319,10.737],[13.237,10.585],[13.205,10.415],[13.053,10.46],[12.94,10.555],[12.735,10.576],[12.652,10.439],[12.606,10.468],[12.565,10.453],[12.538,10.359],[12.444,10.317],[12.295,10.308],[12.249,10.22],[12.109,10.115],[12.09,10.052],[12.014,10.053],[11.999,10.025],[11.843,10.045],[11.857,9.793],[11.655,9.637],[11.474,9.601],[11.43,9.55],[11.526,9.408],[11.596,9.379],[11.648,9.305],[11.7,9.21],[11.707,9.074],[11.856,9.003],[11.903,8.87],[11.784,8.63],[11.786,8.522],[11.651,8.426],[11.523,8.215],[11.342,8.019],[11.49,7.8],[11.545,7.897],[11.578,7.906],[11.748,7.744],[11.772,7.488],[11.854,7.379],[11.956,7.493],[12.04,7.523],[12.019,7.652],[12.042,7.73],[12.221,7.988],[12.206,8.09],[12.259,8.179],[12.241,8.435],[12.312,8.467],[12.387,8.451],[12.472,8.616],[12.585,8.596],[12.677,8.643],[12.722,8.748],[12.79,8.759],[12.79,8.917],[12.878,9.03],[12.905,9.234],[12.903,9.352],[12.856,9.384],[13.047,9.51],[13.177,9.523],[13.235,9.569],[13.297,9.797],[13.227,9.87],[13.285,9.972],[13.247,10.014],[13.329,10.111],[13.428,10.124],[13.486,10.218],[13.554,10.5],[13.542,10.646],[13.689,10.893],[13.692,10.946],[13.621,10.948]]],"crs":null},"type":"Feature","properties":{"adm1_pcode":"NG002","adm1_en":"Adamawa"}},{"geometry":{"type":"MultiPolygon","coordinates":[[[[7.711,5.519],[7.7,5.432],[7.657,5.446],[7.624,5.385],[7.678,5.381],[7.663,5.341],[7.535,5.304],[7.547,5.088],[7.463,4.973],[7.491,4.959],[7.489,4.822],[7.547,4.726],[7.518,4.677],[7.545,4.58],[7.524,4.551],[7.597,4.465],[7.93,4.537],[8.28,4.533],[8.298,4.572],[8.229,4.567],[8.278,4.582],[8.231,4.606],[8.294,4.577],[8.285,4.613],[8.328,4.643],[8.296,4.681],[8.226,4.641],[8.199,4.677],[8.283,4.69],[8.322,4.663],[8.323,4.708],[8.278,4.716],[8.311,4.716],[8.318,4.748],[8.207,4.908],[8.128,4.969],[8.062,5.206],[8.026,5.248],[7.976,5.208],[7.913,5.304],[7.841,5.337],[7.904,5.339],[7.865,5.418],[7.809,5.428],[7.757,5.51],[7.711,5.519]]],[[[8.345,4.611],[8.329,4.636],[8.315,4.588],[8.345,4.611]]]],"crs":null},"type":"Feature","properties":{"adm1_pcode":"NG003","adm1_en":"Akwa Ibom"}},{"geometry":{"type":"Polygon","coordinates":[[[6.933,6.711],[6.912,6.801],[6.8,6.693],[6.808,6.58],[6.665,6.532],[6.769,6.168],[6.709,6.078],[6.713,5.957],[6.626,5.724],[6.648,5.7],[6.81,5.78],[6.884,5.744],[6.887,5.83],[6.916,5.824],[6.978,5.902],[7.06,5.931],[7.173,5.907],[7.257,5.93],[7.264,5.991],[7.318,5.999],[7.338,6.036],[7.273,6.057],[7.224,6.118],[7.2,6.235],[7.151,6.233],[7.162,6.305],[7.128,6.387],[7.027,6.444],[7.129,6.659],[6.933,6.711]]],"crs":null},"type":"Feature","properties":{"adm1_pcode":"NG004","adm1_en":"Anambra"}},{"geometry":{"type":"Polygon","coordinates":[[[10.751,12.461],[10.61,12.521],[10.451,12.424],[10.425,12.471],[10.286,12.45],[10.196,12.34],[10.145,12.149],[10.154,12.04],[9.882,11.95],[9.83,11.89],[9.724,11.857],[9.689,11.873],[9.674,11.787],[9.633,11.781],[9.646,11.733],[9.811,11.721],[9.825,11.598],[9.778,11.53],[9.789,11.462],[9.878,11.454],[9.879,11.365],[9.991,11.252],[10.366,11.206],[10.331,11.132],[10.26,11.094],[10.199,11.101],[10.169,11.067],[10.142,11.014],[10.187,10.945],[10.079,10.989],[9.966,10.96],[9.866,10.999],[9.854,11.109],[9.893,11.159],[9.825,11.282],[9.586,11.258],[9.547,11.339],[9.447,11.308],[9.299,11.371],[9.143,11.332],[8.896,11.102],[8.821,11.099],[8.793,11.061],[8.769,10.829],[8.854,10.697],[8.734,10.436],[8.936,10.349],[8.955,10.309],[8.93,10.215],[8.978,10.18],[8.957,10.023],[9.247,10.032],[9.287,9.88],[9.254,9.809],[9.15,9.748],[9.24,9.682],[9.271,9.717],[9.32,9.582],[9.464,9.475],[9.509,9.54],[9.551,9.505],[9.687,9.521],[9.854,9.607],[9.954,9.611],[9.935,9.722],[9.966,9.774],[10.095,9.744],[10.15,9.682],[10.256,9.688],[10.489,9.553],[10.512,9.511],[10.589,9.564],[10.684,9.542],[10.809,9.615],[10.975,9.593],[10.928,9.91],[10.685,10.081],[10.701,10.112],[10.815,10.129],[10.857,10.236],[10.826,10.294],[10.835,10.402],[10.785,10.468],[10.589,10.528],[10.479,10.688],[10.576,10.886],[10.643,10.861],[10.603,10.962],[10.619,10.994],[10.762,11.117],[10.867,11.089],[11.023,11.285],[10.85,11.358],[10.914,11.394],[10.936,11.475],[10.917,11.752],[10.901,11.819],[10.819,11.86],[10.751,12.461]]],"crs":null},"type":"Feature","properties":{"adm1_pcode":"NG005","adm1_en":"Bauchi"}},{"geometry":{"type":"Polygon","coordinates":[[[6.513,8.399],[6.453,8.448],[6.359,8.685],[6.247,8.739],[6.209,8.732],[6.17,8.663],[6.111,8.431],[6.078,8.398],[5.705,8.446],[5.513,8.539],[5.322,8.341],[5.357,8.275],[5.418,8.284],[5.422,8.228],[5.537,8.198],[5.498,8.115],[5.506,8.019],[5.577,8.071],[5.66,8.07],[5.64,8.054],[5.668,8.002],[5.645,7.963],[5.599,7.958],[5.623,7.843],[5.729,7.828],[5.816,7.728],[5.929,7.747],[5.938,7.649],[6.008,7.582],[6.004,7.529],[6.043,7.577],[6.119,7.591],[6.167,7.545],[6.11,7.494],[6.112,7.449],[6.183,7.429],[6.293,7.499],[6.378,7.398],[6.427,7.415],[6.436,7.36],[6.497,7.333],[6.511,7.267],[6.638,7.295],[6.716,7.136],[6.673,6.936],[6.611,6.822],[6.665,6.532],[6.808,6.58],[6.8,6.693],[6.897,6.792],[6.94,6.774],[6.963,6.844],[6.987,6.844],[6.991,6.785],[7.055,6.786],[7.156,6.883],[7.235,6.911],[7.241,6.971],[7.33,7],[7.386,7.109],[7.466,7.112],[7.531,7.032],[7.583,7.06],[7.623,7.163],[7.783,7.206],[7.819,7.287],[7.775,7.301],[7.794,7.415],[7.836,7.485],[7.779,7.483],[7.74,7.538],[7.753,7.744],[7.664,7.906],[7.697,7.936],[7.665,7.94],[7.677,8.017],[7.505,8.047],[7.306,8.026],[6.995,7.925],[6.964,7.879],[7.003,8.167],[6.935,8.31],[6.984,8.459],[6.828,8.453],[6.837,8.391],[6.751,8.305],[6.761,8.273],[6.72,8.275],[6.691,8.183],[6.513,8.399]]],"crs":null},"type":"Feature","properties":{"adm1_pcode":"NG023","adm1_en":"Kogi"}},{"geometry":{"type":"Polygon","coordinates":[[[3.731,10.068],[3.676,10.179],[3.552,9.88],[3.332,9.803],[3.348,9.686],[3.268,9.658],[3.132,9.452],[3.158,9.286],[3.088,9.103],[2.78,9.065],[2.762,8.806],[2.73,8.774],[2.758,8.561],[2.802,8.61],[2.921,8.612],[3.164,8.809],[3.237,8.783],[3.72,9.013],[3.771,9.147],[3.863,9.188],[3.921,9.173],[4.012,9.035],[4.21,8.97],[4.335,8.981],[4.221,8.861],[4.183,8.765],[4.383,8.299],[4.477,8.218],[4.506,8.092],[4.557,8.059],[4.819,8.054],[4.854,8.096],[4.927,8.08],[4.97,8.017],[5.04,8.072],[5.076,8.025],[5.128,8.063],[5.196,8.018],[5.332,8.01],[5.371,8.096],[5.498,8.111],[5.537,8.156],[5.537,8.198],[5.422,8.228],[5.418,8.284],[5.357,8.275],[5.322,8.341],[5.513,8.539],[5.643,8.463],[5.783,8.428],[6.041,8.393],[6.111,8.431],[6.125,8.556],[6.209,8.732],[6.15,8.721],[6.084,8.761],[5.796,8.742],[5.728,8.82],[5.642,8.835],[5.525,8.94],[5.209,9.035],[5.159,9.107],[5.016,9.205],[4.785,9.135],[4.738,9.269],[4.639,9.308],[4.351,9.588],[4.153,9.862],[4.119,9.856],[4.115,9.882],[4.083,9.852],[4.022,9.857],[4.002,9.907],[3.936,9.916],[3.971,9.949],[3.935,9.967],[3.949,9.991],[3.887,9.988],[3.903,10.019],[3.818,10.067],[3.785,10.062],[3.784,10.031],[3.743,10.084],[3.731,10.068]]],"crs":null},"type":"Feature","properties":{"adm1_pcode":"NG024","adm1_en":"Kwara"}},{"geometry":{"type":"Polygon","coordinates":[[[6.553,5.38],[6.485,5.379],[6.49,5.324],[6.303,5.301],[6.29,5.234],[6.213,5.239],[6.191,5.159],[6.13,5.129],[6.086,5.151],[6.055,5.097],[5.933,5.165],[5.868,5.068],[5.791,5.086],[5.648,5.012],[5.471,5.093],[5.436,5.141],[5.38,5.127],[5.573,4.686],[5.708,4.515],[5.976,4.314],[6.1,4.273],[6.602,4.335],[6.547,4.428],[6.599,4.534],[6.561,4.652],[6.598,4.73],[6.553,4.759],[6.461,4.713],[6.399,4.851],[6.441,4.943],[6.412,5.005],[6.477,5.173],[6.559,5.198],[6.531,5.285],[6.567,5.334],[6.553,5.38]]],"crs":null},"type":"Feature","properties":{"adm1_pcode":"NG006","adm1_en":"Bayelsa"}},{"geometry":{"type":"Polygon","coordinates":[[[8.524,8.157],[8.427,8.112],[8.371,8.046],[8.365,7.92],[8.405,7.861],[8.403,7.766],[8.102,7.867],[8.144,7.904],[7.677,8.014],[7.665,7.94],[7.697,7.936],[7.664,7.906],[7.753,7.744],[7.74,7.538],[7.779,7.483],[7.836,7.485],[7.775,7.301],[7.819,7.287],[7.783,7.206],[7.692,7.199],[7.605,7.145],[7.583,7.06],[7.531,7.032],[7.571,6.94],[7.675,6.856],[7.827,6.892],[7.897,6.864],[7.903,6.781],[7.805,6.64],[7.932,6.532],[7.963,6.544],[8.015,6.721],[8.128,6.712],[8.229,6.8],[8.295,6.679],[8.33,6.681],[8.42,6.757],[8.621,6.781],[8.642,6.819],[8.601,6.856],[8.721,6.896],[8.848,6.866],[8.995,6.777],[8.968,6.697],[9.035,6.647],[9.3,6.72],[9.471,6.525],[9.468,6.451],[9.543,6.443],[9.603,6.538],[9.646,6.895],[9.732,7.067],[9.82,7.109],[9.825,7.255],[9.925,7.51],[9.912,7.638],[9.57,7.899],[9.13,7.788],[9.124,7.827],[9.183,7.896],[9.131,7.931],[9.057,8.078],[8.911,8.056],[8.781,8.075],[8.524,8.157]]],"crs":null},"type":"Feature","properties":{"adm1_pcode":"NG007","adm1_en":"Benue"}},{"geometry":{"type":"Polygon","coordinates":[[[13.359,13.713],[13.274,13.648],[13.199,13.51],[13.145,13.516],[13.15,13.545],[13.092,13.514],[13.064,13.547],[12.925,13.483],[12.874,13.495],[12.863,13.439],[12.816,13.425],[12.831,13.397],[12.721,13.305],[12.692,13.312],[12.674,13.273],[12.643,13.3],[12.579,13.269],[12.536,13.211],[12.559,13.157],[12.5,13.135],[12.48,13.064],[12.394,13.077],[12.378,12.877],[12.49,12.662],[12.389,12.508],[12.261,12.423],[12.304,12.314],[12.303,12.219],[12.25,12.005],[12.248,11.799],[12.178,11.658],[12.224,11.633],[12.275,11.694],[12.3,11.609],[12.374,11.55],[12.316,11.453],[12.245,11.414],[12.187,11.302],[12.105,11.252],[12.139,11.062],[12.029,11.062],[11.937,10.967],[11.685,10.885],[11.768,10.68],[11.64,10.609],[11.635,10.395],[11.534,10.312],[11.601,10.208],[11.74,10.164],[11.839,10.045],[11.999,10.025],[12.014,10.053],[12.09,10.052],[12.109,10.115],[12.249,10.22],[12.295,10.308],[12.444,10.317],[12.538,10.359],[12.565,10.453],[12.606,10.468],[12.652,10.439],[12.745,10.58],[12.94,10.555],[13.053,10.46],[13.205,10.415],[13.237,10.585],[13.319,10.737],[13.346,10.931],[13.45,10.872],[13.577,10.948],[13.692,10.946],[13.79,11.006],[13.886,11.124],[13.976,11.305],[14.176,11.232],[14.43,11.415],[14.454,11.462],[14.558,11.492],[14.631,11.551],[14.64,11.639],[14.554,11.726],[14.61,11.78],[14.607,11.868],[14.658,11.956],[14.623,12.036],[14.674,12.175],[14.55,12.235],[14.488,12.348],[14.226,12.359],[14.174,12.405],[14.197,12.51],[14.083,13.082],[13.632,13.712],[13.359,13.713]]],"crs":null},"type":"Feature","properties":{"adm1_pcode":"NG008","adm1_en":"Borno"}},{"geometry":{"type":"MultiPolygon","coordinates":[[[[8.848,6.866],[8.704,6.896],[8.601,6.856],[8.642,6.819],[8.621,6.781],[8.42,6.757],[8.361,6.693],[8.295,6.679],[8.325,6.589],[8.391,6.55],[8.457,6.428],[8.399,6.354],[8.417,6.26],[8.317,6.172],[8.274,5.999],[8.215,6.012],[8.114,5.938],[8.104,5.961],[8.052,5.954],[8.055,5.998],[7.986,5.982],[8.006,5.904],[7.934,5.822],[7.97,5.768],[7.921,5.76],[7.887,5.7],[7.918,5.65],[7.908,5.536],[7.988,5.363],[7.88,5.367],[7.902,5.336],[7.841,5.337],[7.913,5.304],[7.976,5.208],[8.035,5.243],[8.149,4.939],[8.269,4.829],[8.366,4.839],[8.334,4.804],[8.369,4.777],[8.398,4.783],[8.412,4.839],[8.399,4.773],[8.441,4.773],[8.389,4.756],[8.402,4.732],[8.449,4.737],[8.485,4.784],[8.474,4.735],[8.508,4.754],[8.464,4.723],[8.48,4.689],[8.531,4.709],[8.548,4.811],[8.627,4.823],[8.609,4.889],[8.801,5.154],[8.807,5.297],[8.896,5.585],[8.814,5.707],[8.851,5.742],[8.844,5.828],[9.114,6.075],[9.276,6.158],[9.346,6.29],[9.341,6.334],[9.435,6.336],[9.474,6.5],[9.3,6.72],[9.035,6.647],[8.968,6.697],[9.003,6.768],[8.848,6.866]]],[[[8.561,4.798],[8.572,4.804],[8.566,4.816],[8.561,4.798]]],[[[8.587,4.805],[8.57,4.815],[8.575,4.805],[8.587,4.805]]],[[[8.3,4.792],[8.301,4.813],[8.278,4.83],[8.3,4.792]]]],"crs":null},"type":"Feature","properties":{"adm1_pcode":"NG009","adm1_en":"Cross River"}},{"geometry":{"type":"Polygon","coordinates":[[[6.669,6.501],[6.523,6.488],[6.413,6.396],[6.282,6.357],[6.213,6.279],[6.113,6.349],[6.077,6.279],[6.112,6.241],[6.12,6.158],[6.257,6.017],[6.201,5.897],[6.094,5.794],[5.982,5.748],[5.906,5.77],[5.921,5.877],[5.812,5.984],[5.669,6.052],[5.546,5.985],[5.497,6.042],[5.442,6.041],[5.426,6.006],[5.334,6.021],[5.327,5.983],[5.359,5.97],[5.275,5.909],[5.248,5.987],[5.27,6.054],[5.233,6.066],[5.223,6.149],[5.127,6.164],[4.984,5.898],[5.193,5.58],[5.165,5.538],[5.224,5.462],[5.325,5.406],[5.356,5.18],[5.39,5.134],[5.436,5.141],[5.471,5.093],[5.657,5.012],[5.791,5.086],[5.868,5.068],[5.933,5.165],[6.055,5.097],[6.086,5.151],[6.13,5.129],[6.191,5.159],[6.213,5.239],[6.29,5.234],[6.285,5.279],[6.334,5.318],[6.494,5.326],[6.477,5.404],[6.525,5.439],[6.531,5.532],[6.585,5.562],[6.618,5.632],[6.607,5.68],[6.713,5.957],[6.709,6.078],[6.769,6.168],[6.669,6.501]]],"crs":null},"type":"Feature","properties":{"adm1_pcode":"NG010","adm1_en":"Delta"}},{"geometry":{"type":"Polygon","coordinates":[[[8.244,6.786],[8.164,6.765],[8.128,6.712],[8.001,6.713],[7.949,6.532],[7.856,6.581],[7.832,6.638],[7.789,6.585],[7.737,6.634],[7.699,6.631],[7.751,6.386],[7.708,6.298],[7.726,6.115],[7.668,6.061],[7.715,5.946],[7.664,5.93],[7.547,5.995],[7.54,5.907],[7.498,5.908],[7.533,5.838],[7.786,5.805],[7.804,5.745],[7.89,5.685],[7.921,5.76],[7.97,5.768],[7.934,5.822],[8.006,5.904],[7.986,5.982],[8.055,5.998],[8.052,5.954],[8.104,5.961],[8.114,5.938],[8.215,6.012],[8.282,6.005],[8.317,6.172],[8.411,6.246],[8.399,6.354],[8.457,6.428],[8.391,6.55],[8.314,6.607],[8.244,6.786]]],"crs":null},"type":"Feature","properties":{"adm1_pcode":"NG011","adm1_en":"Ebonyi"}},{"geometry":{"type":"Polygon","coordinates":[[[6.134,7.552],[6.119,7.591],[6.049,7.58],[5.954,7.515],[5.987,7.448],[5.987,7.355],[5.956,7.338],[5.979,7.316],[5.897,7.258],[5.894,7.183],[5.793,7.022],[5.771,6.797],[5.703,6.736],[5.629,6.746],[5.574,6.707],[5.555,6.883],[5.272,6.889],[5.122,6.699],[5.112,6.63],[5.162,6.562],[5.153,6.498],[5.104,6.402],[5.029,6.364],[5.013,6.299],[5.092,6.198],[5.122,6.206],[5.143,6.143],[5.223,6.149],[5.233,6.066],[5.27,6.054],[5.248,5.987],[5.275,5.909],[5.359,5.97],[5.327,5.983],[5.334,6.021],[5.426,6.006],[5.442,6.041],[5.497,6.042],[5.546,5.985],[5.669,6.052],[5.812,5.984],[5.921,5.877],[5.894,5.799],[5.925,5.748],[6.04,5.765],[6.201,5.897],[6.257,6.017],[6.12,6.158],[6.112,6.241],[6.077,6.279],[6.101,6.335],[6.127,6.356],[6.213,6.279],[6.282,6.357],[6.413,6.396],[6.523,6.488],[6.669,6.501],[6.611,6.822],[6.673,6.936],[6.716,7.121],[6.693,7.217],[6.638,7.295],[6.511,7.267],[6.497,7.333],[6.436,7.36],[6.427,7.415],[6.378,7.398],[6.293,7.499],[6.183,7.429],[6.112,7.449],[6.11,7.494],[6.167,7.545],[6.134,7.552]]],"crs":null},"type":"Feature","properties":{"adm1_pcode":"NG012","adm1_en":"Edo"}},{"geometry":{"type":"Polygon","coordinates":[[[5.506,8.019],[5.514,8.111],[5.371,8.096],[5.332,8.01],[5.196,8.018],[5.142,8.062],[5.084,8.024],[5.058,8.039],[4.911,7.85],[4.864,7.623],[4.952,7.448],[5.006,7.414],[5.065,7.46],[5.32,7.441],[5.358,7.296],[5.388,7.283],[5.526,7.341],[5.599,7.45],[5.62,7.624],[5.681,7.624],[5.792,7.782],[5.729,7.828],[5.623,7.843],[5.599,7.958],[5.645,7.963],[5.668,8.002],[5.656,8.075],[5.577,8.071],[5.506,8.019]]],"crs":null},"type":"Feature","properties":{"adm1_pcode":"NG013","adm1_en":"Ekiti"}},{"geometry":{"type":"Polygon","coordinates":[[[7.545,7.001],[7.466,7.112],[7.386,7.109],[7.33,7],[7.241,6.971],[7.235,6.911],[7.156,6.883],[7.081,6.8],[6.991,6.785],[6.987,6.844],[6.963,6.844],[6.932,6.699],[6.991,6.713],[7.129,6.659],[7.027,6.444],[7.128,6.387],[7.162,6.305],[7.151,6.233],[7.2,6.235],[7.22,6.123],[7.269,6.061],[7.416,6.006],[7.52,6.02],[7.692,5.925],[7.711,5.971],[7.668,6.061],[7.726,6.115],[7.708,6.298],[7.751,6.386],[7.699,6.631],[7.792,6.588],[7.855,6.743],[7.903,6.781],[7.897,6.864],[7.827,6.892],[7.675,6.856],[7.571,6.94],[7.545,7.001]]],"crs":null},"type":"Feature","properties":{"adm1_pcode":"NG014","adm1_en":"Enugu"}},{"geometry":{"type":"Polygon","coordinates":[[[7.672,9.411],[7.59,9.432],[7.51,9.361],[7.399,9.357],[7.219,9.102],[7.044,9.232],[6.8,9.225],[6.779,8.454],[7.312,8.501],[7.443,8.593],[7.592,8.835],[7.589,9.129],[7.668,9.304],[7.73,9.332],[7.672,9.411]]],"crs":null},"type":"Feature","properties":{"adm1_pcode":"NG015","adm1_en":"Federal Capital Territory"}},{"geometry":{"type":"Polygon","coordinates":[[[11.071,11.312],[11.007,11.296],[11,11.236],[10.867,11.089],[10.762,11.117],[10.619,10.994],[10.603,10.962],[10.643,10.861],[10.576,10.886],[10.479,10.688],[10.589,10.528],[10.785,10.468],[10.835,10.402],[10.826,10.294],[10.857,10.236],[10.815,10.129],[10.701,10.112],[10.685,10.081],[10.928,9.91],[10.98,9.571],[11.42,9.546],[11.474,9.601],[11.655,9.637],[11.851,9.786],[11.855,10.005],[11.74,10.164],[11.601,10.208],[11.533,10.305],[11.635,10.395],[11.65,10.529],[11.64,10.609],[11.517,10.57],[11.539,10.851],[11.513,10.969],[11.365,11.127],[11.304,11.249],[11.238,11.243],[11.071,11.312]]],"crs":null},"type":"Feature","properties":{"adm1_pcode":"NG016","adm1_en":"Gombe"}},{"geometry":{"type":"Polygon","coordinates":[[[7.266,5.931],[7.173,5.907],[7.06,5.931],[6.978,5.902],[6.916,5.824],[6.887,5.83],[6.884,5.744],[6.802,5.779],[6.67,5.696],[6.639,5.493],[6.738,5.492],[6.777,5.429],[6.756,5.323],[6.818,5.258],[6.925,5.226],[7.121,5.246],[7.225,5.195],[7.264,5.216],[7.323,5.408],[7.432,5.609],[7.382,5.706],[7.396,5.908],[7.266,5.931]]],"crs":null},"type":"Feature","properties":{"adm1_pcode":"NG017","adm1_en":"Imo"}},{"geometry":{"type":"Polygon","coordinates":[[[10.23,13.011],[9.953,12.949],[9.893,12.852],[9.8,12.815],[9.045,12.837],[9.042,12.815],[8.977,12.817],[8.914,12.705],[8.797,12.676],[8.612,12.733],[8.591,12.812],[8.557,12.83],[8.187,12.839],[8.142,12.67],[8.286,12.64],[8.317,12.504],[8.382,12.44],[8.467,12.588],[8.714,12.573],[8.685,12.476],[8.816,12.413],[8.74,12.316],[8.721,12.217],[8.807,12.313],[8.852,12.277],[8.908,12.317],[8.89,12.273],[8.968,12.159],[8.947,12.07],[9.059,12.085],[9.097,12.023],[9.136,12.017],[9.165,12.103],[9.213,12.119],[9.22,12.012],[9.254,11.996],[9.219,11.96],[9.239,11.9],[9.145,11.807],[9.147,11.746],[9.249,11.746],[9.217,11.7],[9.232,11.661],[9.276,11.663],[9.272,11.603],[9.365,11.569],[9.324,11.512],[9.225,11.473],[9.194,11.351],[9.313,11.369],[9.447,11.308],[9.542,11.34],[9.582,11.26],[9.629,11.252],[9.823,11.283],[9.893,11.159],[9.854,11.109],[9.866,10.999],[9.966,10.96],[10.079,10.989],[10.175,10.942],[10.195,10.964],[10.142,11.014],[10.175,11.075],[10.331,11.132],[10.366,11.206],[10.049,11.263],[9.997,11.248],[9.879,11.365],[9.878,11.454],[9.789,11.462],[9.778,11.53],[9.825,11.598],[9.811,11.721],[9.649,11.732],[9.627,11.76],[9.674,11.787],[9.689,11.873],[9.724,11.857],[9.83,11.89],[9.882,11.95],[10.154,12.04],[10.145,12.149],[10.196,12.34],[10.278,12.444],[10.417,12.472],[10.451,12.424],[10.594,12.52],[10.575,12.812],[10.367,12.862],[10.252,12.844],[10.282,12.95],[10.23,13.011]]],"crs":null},"type":"Feature","properties":{"adm1_pcode":"NG018","adm1_en":"Jigawa"}},{"geometry":{"type":"Polygon","coordinates":[[[8.17,11.487],[8.121,11.515],[7.946,11.459],[7.87,11.384],[7.765,11.375],[7.747,11.317],[7.647,11.283],[7.507,11.356],[7.478,11.409],[7.432,11.405],[7.393,11.379],[7.356,11.267],[7.282,11.285],[7.201,11.258],[7.235,11.186],[7.158,11.138],[7.073,11.215],[6.968,11.245],[7.022,11.315],[7.011,11.36],[6.889,11.381],[6.754,11.263],[6.734,11.148],[6.676,11.057],[6.458,10.999],[6.411,11.03],[6.323,11.026],[6.234,10.945],[6.206,10.863],[6.123,10.845],[6.091,10.7],[6.137,10.67],[6.09,10.475],[6.149,10.45],[6.168,10.384],[6.201,10.387],[6.397,10.573],[6.48,10.609],[6.514,10.605],[6.549,10.545],[6.647,10.593],[6.726,10.589],[6.729,10.649],[6.817,10.638],[6.84,10.532],[6.869,10.555],[6.913,10.538],[6.954,10.482],[6.926,10.37],[7.02,10.354],[7.051,10.317],[7.008,10.242],[6.885,10.151],[6.901,10.076],[6.952,10.048],[7.232,10.043],[7.278,10.016],[7.291,9.8],[7.205,9.758],[7.28,9.725],[7.344,9.623],[7.211,9.501],[7.222,9.448],[7.29,9.425],[7.261,9.356],[7.51,9.361],[7.59,9.432],[7.672,9.411],[7.73,9.332],[7.828,9.31],[7.938,9.403],[7.999,9.354],[8.001,9.306],[8.115,9.224],[8.108,9.053],[8.16,9.067],[8.251,9.191],[8.294,9.205],[8.388,9.176],[8.514,9.001],[8.611,9.106],[8.657,9.226],[8.636,9.248],[8.698,9.321],[8.695,9.378],[8.642,9.401],[8.555,9.55],[8.555,9.664],[8.588,9.667],[8.594,9.731],[8.637,9.766],[8.611,9.963],[8.68,10.005],[8.63,10.136],[8.655,10.212],[8.783,10.292],[8.772,10.393],[8.824,10.383],[8.729,10.451],[8.77,10.476],[8.779,10.563],[8.689,10.566],[8.647,10.641],[8.562,10.628],[8.516,10.654],[8.519,10.705],[8.588,10.718],[8.567,10.877],[8.597,11.061],[8.434,11.22],[8.329,11.212],[8.266,11.278],[8.274,11.308],[8.215,11.311],[8.142,11.371],[8.17,11.487]]],"crs":null},"type":"Feature","properties":{"adm1_pcode":"NG019","adm1_en":"Kaduna"}},{"geometry":{"type":"Polygon","coordinates":[[[8.305,12.588],[8.215,12.575],[8.131,12.411],[7.882,12.325],[7.833,11.97],[7.912,11.661],[7.735,11.592],[7.686,11.484],[7.737,11.387],[7.777,11.372],[7.863,11.381],[7.946,11.459],[8.159,11.508],[8.142,11.371],[8.215,11.311],[8.274,11.308],[8.266,11.278],[8.329,11.212],[8.434,11.22],[8.597,11.061],[8.567,10.877],[8.588,10.718],[8.519,10.705],[8.516,10.654],[8.562,10.628],[8.647,10.641],[8.689,10.566],[8.756,10.55],[8.817,10.604],[8.854,10.697],[8.765,10.861],[8.801,11.077],[8.896,11.102],[9.033,11.256],[9.194,11.351],[9.225,11.473],[9.324,11.512],[9.365,11.569],[9.272,11.603],[9.276,11.663],[9.232,11.661],[9.217,11.7],[9.249,11.746],[9.147,11.746],[9.145,11.807],[9.239,11.9],[9.219,11.96],[9.254,11.996],[9.22,12.012],[9.213,12.119],[9.165,12.103],[9.136,12.017],[9.097,12.023],[9.059,12.085],[8.947,12.07],[8.968,12.159],[8.89,12.273],[8.908,12.317],[8.852,12.277],[8.807,12.313],[8.721,12.217],[8.74,12.316],[8.816,12.413],[8.685,12.476],[8.714,12.573],[8.467,12.588],[8.382,12.44],[8.317,12.504],[8.305,12.588]]],"crs":null},"type":"Feature","properties":{"adm1_pcode":"NG020","adm1_en":"Kano"}},{"geometry":{"type":"Polygon","coordinates":[[[7.818,13.33],[7.421,13.097],[7.228,13.124],[7.129,13.027],[7.048,12.999],[7.023,12.832],[7.054,12.516],[7.153,12.184],[7.091,12.064],[7.242,11.933],[7.144,11.911],[7.106,11.831],[7.055,11.801],[6.897,11.795],[6.852,11.621],[6.904,11.553],[6.889,11.381],[7.024,11.337],[6.968,11.245],[7.073,11.215],[7.152,11.139],[7.235,11.186],[7.201,11.258],[7.282,11.285],[7.356,11.267],[7.393,11.379],[7.439,11.407],[7.484,11.405],[7.507,11.356],[7.635,11.282],[7.752,11.324],[7.765,11.375],[7.699,11.439],[7.694,11.526],[7.746,11.6],[7.912,11.661],[7.833,11.97],[7.876,12.312],[8.134,12.412],[8.215,12.575],[8.292,12.605],[8.286,12.64],[8.142,12.67],[8.171,12.833],[8.557,12.83],[8.591,12.812],[8.612,12.733],[8.752,12.674],[8.914,12.705],[8.977,12.817],[9.05,12.822],[8.662,12.931],[8.544,13.053],[8.418,13.054],[8.094,13.302],[7.818,13.33]]],"crs":null},"type":"Feature","properties":{"adm1_pcode":"NG021","adm1_en":"Katsina"}},{"geometry":{"type":"Polygon","coordinates":[[[4.254,13.26],[4.129,13.263],[4.081,12.973],[3.94,12.762],[3.644,12.521],[3.656,12.285],[3.63,12.112],[3.669,11.98],[3.617,11.917],[3.667,11.785],[3.514,11.663],[3.525,11.427],[3.497,11.291],[3.654,11.111],[3.752,11.128],[3.994,11.018],[4.214,11.031],[4.288,10.98],[4.288,10.929],[4.429,10.884],[4.645,10.94],[4.716,10.916],[4.742,10.873],[4.689,10.642],[4.51,10.535],[4.479,10.421],[4.483,10.329],[4.569,10.246],[4.527,10.114],[4.69,10.114],[4.713,10.162],[4.669,10.226],[4.705,10.253],[4.705,10.302],[4.856,10.3],[4.853,10.46],[4.796,10.629],[4.81,10.698],[4.942,10.689],[5.02,10.746],[5.101,10.76],[5.109,10.796],[5.029,10.859],[5.025,10.89],[5.082,10.927],[5.041,11.052],[4.746,11.148],[4.699,11.222],[4.747,11.258],[4.741,11.301],[4.891,11.371],[4.959,11.369],[5.005,11.258],[5.058,11.27],[5.058,11.205],[5.1,11.346],[5.134,11.353],[5.217,11.299],[5.153,11.225],[5.113,11.234],[5.159,11.206],[5.241,11.261],[5.244,11.316],[5.337,11.335],[5.358,11.227],[5.417,11.156],[5.384,11.06],[5.429,11.041],[5.458,10.953],[5.657,10.967],[5.796,11.044],[5.911,11.065],[6.009,11.141],[6.054,11.24],[6.129,11.254],[6.155,11.309],[6.131,11.375],[6.009,11.48],[5.824,11.482],[5.839,11.634],[5.766,11.694],[5.672,11.66],[5.56,11.686],[5.462,11.666],[5.443,11.703],[5.353,11.704],[5.298,11.787],[5.222,11.754],[5.173,11.783],[5.139,11.722],[4.796,11.725],[4.754,11.675],[4.581,11.661],[4.497,11.582],[4.435,11.63],[4.349,11.727],[4.386,11.75],[4.437,11.714],[4.545,11.804],[4.578,12.055],[4.534,12.185],[4.552,12.293],[4.6,12.342],[4.622,12.429],[4.748,12.366],[4.761,12.449],[4.844,12.56],[4.75,12.682],[4.814,12.759],[4.793,12.837],[4.638,12.985],[4.702,13.071],[4.703,13.167],[4.602,13.095],[4.365,13.174],[4.254,13.26]]],"crs":null},"type":"Feature","properties":{"adm1_pcode":"NG022","adm1_en":"Kebbi"}},{"geometry":{"type":"Polygon","coordinates":[[[3.324,6.674],[3.262,6.698],[3.177,6.508],[2.887,6.511],[2.893,6.48],[2.842,6.444],[2.703,6.452],[2.704,6.373],[3.406,6.39],[3.419,6.419],[3.835,6.438],[4.351,6.371],[4.337,6.44],[4.245,6.434],[4.161,6.475],[4.156,6.499],[4.222,6.538],[4.212,6.582],[4.065,6.562],[4.05,6.619],[4.091,6.679],[3.459,6.687],[3.458,6.639],[3.387,6.639],[3.324,6.674]]],"crs":null},"type":"Feature","properties":{"adm1_pcode":"NG025","adm1_en":"Lagos"}},{"geometry":{"type":"Polygon","coordinates":[[[7.997,9.314],[7.999,9.354],[7.921,9.405],[7.834,9.311],[7.741,9.349],[7.668,9.304],[7.589,9.129],[7.592,8.835],[7.479,8.633],[7.356,8.512],[6.984,8.459],[6.935,8.31],[7.003,8.167],[6.964,7.879],[6.995,7.925],[7.254,8.015],[7.505,8.047],[7.918,7.976],[8.144,7.904],[8.102,7.867],[8.403,7.766],[8.363,8.017],[8.391,8.078],[8.504,8.158],[8.588,8.156],[8.622,8.12],[8.781,8.075],[8.911,8.056],[9.057,8.078],[9.131,7.931],[9.174,7.905],[9.336,7.986],[9.415,8.062],[9.387,8.149],[9.412,8.177],[9.323,8.253],[9.363,8.341],[9.615,8.295],[9.621,8.389],[9.572,8.429],[9.346,8.492],[9.264,8.46],[9.175,8.467],[9.132,8.429],[9.049,8.52],[8.979,8.531],[8.983,8.597],[8.892,8.74],[8.959,8.85],[9.016,8.858],[9.072,8.945],[9.057,9.024],[8.798,9.032],[8.765,9.165],[8.668,9.19],[8.657,9.226],[8.533,9.004],[8.504,9.001],[8.381,9.182],[8.285,9.206],[8.16,9.067],[8.108,9.053],[8.115,9.224],[7.997,9.314]]],"crs":null},"type":"Feature","properties":{"adm1_pcode":"NG026","adm1_en":"Nasarawa"}},{"geometry":{"type":"Polygon","coordinates":[[[4.93,11.357],[4.891,11.371],[4.741,11.301],[4.702,11.192],[4.789,11.119],[5.041,11.052],[5.082,10.927],[5.025,10.89],[5.029,10.859],[5.107,10.786],[4.942,10.689],[4.81,10.698],[4.796,10.629],[4.853,10.46],[4.856,10.3],[4.705,10.302],[4.705,10.253],[4.669,10.226],[4.713,10.162],[4.7,10.12],[4.527,10.114],[4.569,10.246],[4.483,10.329],[4.479,10.421],[4.51,10.535],[4.689,10.642],[4.742,10.873],[4.716,10.916],[4.645,10.94],[4.429,10.884],[4.288,10.929],[4.288,10.98],[4.214,11.031],[3.994,11.018],[3.752,11.128],[3.722,11.128],[3.717,11.028],[3.765,10.974],[3.747,10.836],[3.843,10.699],[3.852,10.594],[3.787,10.406],[3.692,10.458],[3.636,10.427],[3.585,10.281],[3.601,10.237],[3.703,10.153],[3.715,10.089],[3.775,10.033],[3.818,10.067],[3.903,10.019],[3.887,9.988],[3.949,9.991],[3.935,9.967],[3.971,9.949],[3.946,9.908],[4.002,9.907],[4.022,9.857],[4.083,9.852],[4.115,9.882],[4.119,9.856],[4.153,9.862],[4.351,9.588],[4.639,9.308],[4.738,9.269],[4.785,9.135],[5.016,9.205],[5.159,9.107],[5.209,9.035],[5.525,8.94],[5.642,8.835],[5.728,8.82],[5.796,8.742],[6.084,8.761],[6.15,8.721],[6.303,8.728],[6.398,8.629],[6.453,8.448],[6.608,8.314],[6.691,8.183],[6.72,8.275],[6.761,8.273],[6.751,8.305],[6.838,8.397],[6.828,8.453],[6.779,8.454],[6.8,9.225],[7.044,9.232],[7.219,9.102],[7.388,9.35],[7.261,9.356],[7.29,9.425],[7.222,9.448],[7.213,9.485],[7.344,9.623],[7.28,9.725],[7.205,9.758],[7.291,9.8],[7.278,10.016],[7.232,10.043],[6.952,10.048],[6.901,10.076],[6.885,10.151],[7.008,10.242],[7.051,10.317],[7.02,10.354],[6.926,10.37],[6.954,10.482],[6.913,10.538],[6.869,10.555],[6.84,10.532],[6.803,10.643],[6.729,10.649],[6.726,10.589],[6.647,10.593],[6.549,10.545],[6.514,10.605],[6.48,10.609],[6.168,10.384],[6.087,10.515],[6.127,10.569],[6.137,10.67],[6.091,10.7],[6.099,10.771],[6.123,10.845],[6.164,10.873],[6.16,10.926],[6.053,11.043],[6.016,11.138],[5.985,11.144],[5.911,11.065],[5.796,11.044],[5.657,10.967],[5.458,10.953],[5.429,11.041],[5.384,11.06],[5.417,11.156],[5.358,11.227],[5.337,11.335],[5.244,11.316],[5.241,11.261],[5.159,11.206],[5.113,11.234],[5.153,11.225],[5.209,11.265],[5.209,11.323],[5.105,11.352],[5.058,11.205],[5.058,11.27],[5.012,11.252],[4.966,11.362],[4.93,11.357]]],"crs":null},"type":"Feature","properties":{"adm1_pcode":"NG027","adm1_en":"Niger"}},{"geometry":{"type":"Polygon","coordinates":[[[2.846,7.93],[2.785,7.949],[2.693,7.868],[2.738,7.779],[2.729,7.576],[2.796,7.469],[2.792,7.423],[2.742,7.422],[2.772,7.189],[2.737,7.121],[2.772,7.046],[2.724,7.01],[2.712,6.953],[2.74,6.918],[2.724,6.782],[2.787,6.75],[2.728,6.624],[2.743,6.563],[2.702,6.512],[2.703,6.452],[2.842,6.444],[2.912,6.514],[3.177,6.508],[3.262,6.698],[3.387,6.639],[3.458,6.639],[3.459,6.687],[4.091,6.679],[4.05,6.619],[4.065,6.562],[4.109,6.548],[4.166,6.593],[4.229,6.558],[4.161,6.475],[4.245,6.434],[4.337,6.44],[4.351,6.371],[4.497,6.359],[4.576,6.304],[4.597,6.368],[4.473,6.393],[4.539,6.415],[4.564,6.499],[4.605,6.492],[4.582,6.633],[4.497,6.505],[4.458,6.603],[4.376,6.663],[4.418,6.76],[4.548,6.841],[4.562,6.988],[4.61,7.031],[4.39,6.981],[4.369,7.059],[4.298,7.091],[4.198,7.049],[4.169,7.174],[3.939,7.084],[3.731,7.081],[3.794,7.139],[3.762,7.301],[3.714,7.305],[3.707,7.447],[3.541,7.44],[3.474,7.389],[3.446,7.494],[3.393,7.456],[3.319,7.314],[3.249,7.367],[3.155,7.378],[3.082,7.439],[3.064,7.52],[2.979,7.591],[3.026,7.759],[3.009,7.826],[2.983,7.858],[2.915,7.751],[2.879,7.823],[2.92,7.924],[2.846,7.93]]],"crs":null},"type":"Feature","properties":{"adm1_pcode":"NG028","adm1_en":"Ogun"}},{"geometry":{"type":"Polygon","coordinates":[[[5.926,7.732],[5.773,7.747],[5.699,7.683],[5.681,7.624],[5.623,7.628],[5.599,7.45],[5.526,7.341],[5.454,7.301],[5.358,7.296],[5.315,7.443],[5.059,7.459],[4.99,7.378],[4.778,7.357],[4.747,7.321],[4.742,7.215],[4.709,7.165],[4.672,7.166],[4.564,6.996],[4.548,6.841],[4.39,6.716],[4.38,6.639],[4.454,6.607],[4.497,6.505],[4.582,6.633],[4.605,6.492],[4.564,6.499],[4.539,6.415],[4.473,6.393],[4.582,6.378],[4.595,6.333],[4.567,6.303],[4.497,6.359],[4.46,6.343],[4.761,6.119],[4.984,5.898],[5.138,6.173],[5.016,6.292],[5.029,6.364],[5.104,6.402],[5.153,6.498],[5.164,6.554],[5.114,6.621],[5.116,6.677],[5.255,6.883],[5.555,6.883],[5.577,6.704],[5.629,6.746],[5.703,6.736],[5.771,6.797],[5.793,7.022],[5.894,7.183],[5.897,7.258],[5.979,7.315],[5.956,7.342],[5.987,7.355],[5.987,7.45],[5.949,7.496],[6.004,7.529],[6.009,7.58],[5.938,7.649],[5.926,7.732]]],"crs":null},"type":"Feature","properties":{"adm1_pcode":"NG029","adm1_en":"Ondo"}},{"geometry":{"type":"Polygon","coordinates":[[[4.95,8.055],[4.854,8.096],[4.819,8.054],[4.666,8.043],[4.622,8.076],[4.561,8.054],[4.547,7.973],[4.429,7.937],[4.431,7.883],[4.392,7.892],[4.366,7.859],[4.328,7.935],[4.265,7.97],[4.191,7.91],[4.217,7.871],[4.091,7.85],[4.061,7.754],[4.078,7.71],[4.025,7.665],[4.097,7.595],[4.13,7.6],[4.108,7.567],[4.166,7.506],[4.125,7.258],[4.073,7.136],[4.169,7.174],[4.201,7.047],[4.298,7.091],[4.369,7.059],[4.39,6.981],[4.489,6.992],[4.516,7.023],[4.61,7.031],[4.627,7.104],[4.747,7.223],[4.747,7.321],[4.778,7.357],[5.004,7.389],[4.864,7.623],[4.911,7.85],[5.056,8.031],[5.04,8.072],[4.97,8.017],[4.95,8.055]]],"crs":null},"type":"Feature","properties":{"adm1_pcode":"NG030","adm1_en":"Osun"}},{"geometry":{"type":"Polygon","coordinates":[[[4.21,8.97],[4.012,9.035],[3.921,9.173],[3.826,9.182],[3.754,9.121],[3.72,9.013],[3.237,8.783],[3.164,8.809],[2.921,8.612],[2.802,8.61],[2.707,8.42],[2.698,8.312],[2.753,8.211],[2.684,7.868],[2.794,7.952],[2.918,7.926],[2.879,7.823],[2.912,7.753],[2.986,7.859],[3.026,7.792],[2.98,7.587],[3.064,7.52],[3.115,7.408],[3.249,7.367],[3.296,7.318],[3.324,7.315],[3.393,7.456],[3.446,7.494],[3.474,7.389],[3.541,7.44],[3.707,7.447],[3.714,7.305],[3.762,7.301],[3.794,7.139],[3.731,7.081],[3.939,7.084],[3.998,7.126],[4.088,7.133],[4.073,7.167],[4.125,7.258],[4.166,7.506],[4.108,7.567],[4.13,7.6],[4.097,7.595],[4.025,7.665],[4.078,7.71],[4.061,7.754],[4.091,7.85],[4.217,7.871],[4.191,7.91],[4.265,7.97],[4.328,7.935],[4.366,7.859],[4.392,7.892],[4.435,7.885],[4.429,7.937],[4.558,7.982],[4.569,8.055],[4.506,8.092],[4.477,8.218],[4.383,8.299],[4.183,8.765],[4.221,8.861],[4.335,8.981],[4.21,8.97]]],"crs":null},"type":"Feature","properties":{"adm1_pcode":"NG031","adm1_en":"Oyo"}},{"geometry":{"type":"Polygon","coordinates":[[[8.793,10.385],[8.772,10.393],[8.783,10.292],[8.646,10.197],[8.629,10.113],[8.68,10.005],[8.611,9.963],[8.637,9.766],[8.594,9.731],[8.588,9.667],[8.555,9.664],[8.555,9.55],[8.642,9.401],[8.695,9.378],[8.684,9.283],[8.638,9.241],[8.668,9.19],[8.765,9.165],[8.798,9.032],[9.063,9.018],[9.072,8.945],[9.024,8.866],[8.959,8.85],[8.892,8.74],[8.983,8.597],[8.982,8.527],[9.049,8.52],[9.132,8.429],[9.175,8.467],[9.264,8.46],[9.346,8.492],[9.757,8.367],[9.95,8.499],[10.407,8.935],[10.597,8.976],[10.64,9.073],[10.56,9.351],[10.579,9.439],[10.489,9.553],[10.256,9.688],[10.15,9.682],[10.095,9.744],[9.966,9.774],[9.935,9.722],[9.954,9.611],[9.854,9.607],[9.687,9.521],[9.551,9.505],[9.509,9.54],[9.464,9.475],[9.32,9.582],[9.271,9.717],[9.24,9.682],[9.15,9.748],[9.254,9.809],[9.287,9.88],[9.247,10.032],[8.957,10.023],[8.978,10.18],[8.93,10.229],[8.955,10.309],[8.93,10.352],[8.793,10.385]]],"crs":null},"type":"Feature","properties":{"adm1_pcode":"NG032","adm1_en":"Plateau"}},{"geometry":{"type":"Polygon","coordinates":[[[6.644,5.702],[6.618,5.717],[6.618,5.632],[6.585,5.562],[6.531,5.532],[6.525,5.439],[6.477,5.404],[6.485,5.379],[6.57,5.372],[6.531,5.285],[6.567,5.237],[6.553,5.19],[6.477,5.173],[6.412,5.005],[6.441,4.943],[6.398,4.864],[6.461,4.713],[6.553,4.759],[6.598,4.73],[6.563,4.679],[6.603,4.556],[6.547,4.428],[6.561,4.376],[6.639,4.317],[6.723,4.358],[6.876,4.359],[6.858,4.396],[6.994,4.375],[7.027,4.402],[7.015,4.425],[7.115,4.462],[7.17,4.451],[7.133,4.385],[7.184,4.379],[7.327,4.419],[7.325,4.447],[7.582,4.452],[7.591,4.49],[7.524,4.551],[7.545,4.58],[7.518,4.677],[7.547,4.726],[7.487,4.828],[7.32,4.88],[7.205,4.859],[7.14,4.901],[7.195,4.953],[7.185,4.982],[7.241,4.994],[7.284,5.171],[7.264,5.216],[7.21,5.197],[7.121,5.246],[7.094,5.225],[7.04,5.25],[6.925,5.226],[6.804,5.269],[6.756,5.323],[6.777,5.429],[6.75,5.476],[6.639,5.493],[6.671,5.704],[6.644,5.702]]],"crs":null},"type":"Feature","properties":{"adm1_pcode":"NG033","adm1_en":"Rivers"}},{"geometry":{"type":"Polygon","coordinates":[[[5.515,13.894],[5.352,13.848],[5.24,13.748],[4.988,13.741],[4.871,13.782],[4.478,13.707],[4.204,13.477],[4.129,13.473],[4.129,13.263],[4.232,13.27],[4.346,13.214],[4.365,13.174],[4.619,13.092],[4.67,13.166],[4.703,13.167],[4.702,13.071],[4.638,12.985],[4.789,12.843],[4.816,12.774],[4.75,12.682],[4.844,12.552],[4.761,12.449],[4.75,12.368],[4.622,12.429],[4.6,12.342],[4.552,12.293],[4.534,12.185],[4.578,12.055],[4.545,11.804],[4.437,11.714],[4.386,11.75],[4.349,11.727],[4.488,11.583],[4.581,11.661],[4.754,11.675],[4.805,11.727],[4.941,11.726],[4.919,11.788],[4.948,11.897],[4.95,12.246],[4.982,12.301],[5.118,12.279],[5.215,12.308],[5.438,12.253],[5.653,12.292],[5.726,12.271],[5.765,12.424],[5.686,12.709],[5.709,12.805],[5.813,12.84],[6.021,12.737],[6.046,12.754],[6.008,12.885],[6.04,12.931],[6.028,13.021],[6.152,13.075],[6.254,13.032],[6.27,13.156],[6.623,13.067],[6.793,13.161],[6.677,13.354],[6.442,13.597],[6.337,13.659],[6.266,13.68],[6.147,13.643],[5.515,13.894]]],"crs":null},"type":"Feature","properties":{"adm1_pcode":"NG034","adm1_en":"Sokoto"}},{"geometry":{"type":"Polygon","coordinates":[[[10.838,9.618],[10.678,9.54],[10.589,9.564],[10.516,9.511],[10.577,9.446],[10.56,9.351],[10.636,9.127],[10.597,8.976],[10.42,8.944],[9.869,8.431],[9.757,8.367],[9.619,8.387],[9.61,8.291],[9.363,8.341],[9.323,8.253],[9.412,8.177],[9.387,8.149],[9.415,8.062],[9.336,7.986],[9.179,7.908],[9.116,7.808],[9.13,7.788],[9.57,7.899],[9.912,7.638],[9.925,7.51],[9.825,7.255],[9.82,7.109],[9.732,7.067],[9.646,6.895],[9.646,6.739],[9.599,6.531],[9.707,6.512],[9.785,6.795],[9.884,6.773],[10.155,7.041],[10.214,6.891],[10.497,6.902],[10.545,6.945],[10.576,7.16],[10.622,7.057],[10.84,6.937],[10.824,6.83],[10.914,6.766],[10.918,6.708],[10.948,6.685],[11.039,6.718],[11.088,6.703],[11.102,6.54],[11.163,6.563],[11.353,6.502],[11.428,6.532],[11.434,6.599],[11.522,6.609],[11.555,6.664],[11.599,6.801],[11.559,6.867],[11.614,6.914],[11.632,6.983],[11.718,7.058],[11.819,7.058],[11.849,7.085],[11.803,7.248],[11.854,7.379],[11.772,7.488],[11.755,7.732],[11.578,7.906],[11.545,7.897],[11.49,7.8],[11.342,8.022],[11.523,8.215],[11.651,8.426],[11.786,8.522],[11.781,8.617],[11.9,8.857],[11.893,8.945],[11.856,9.003],[11.707,9.074],[11.7,9.21],[11.648,9.305],[11.596,9.379],[11.526,9.408],[11.43,9.55],[11.02,9.549],[10.975,9.593],[10.838,9.618]]],"crs":null},"type":"Feature","properties":{"adm1_pcode":"NG035","adm1_en":"Taraba"}},{"geometry":{"type":"Polygon","coordinates":[[[11.222,13.374],[10.704,13.365],[10.466,13.282],[10.201,13.266],[10,13.168],[9.658,12.809],[9.848,12.827],[9.953,12.949],[10.209,13.021],[10.255,13.012],[10.28,12.956],[10.252,12.844],[10.367,12.862],[10.575,12.812],[10.59,12.522],[10.751,12.461],[10.819,11.86],[10.901,11.819],[10.917,11.757],[10.936,11.475],[10.914,11.394],[10.85,11.358],[10.973,11.294],[11.079,11.312],[11.238,11.243],[11.309,11.245],[11.365,11.127],[11.53,10.935],[11.528,10.568],[11.768,10.68],[11.686,10.887],[11.937,10.967],[12.029,11.062],[12.139,11.062],[12.105,11.252],[12.187,11.302],[12.245,11.414],[12.316,11.453],[12.374,11.55],[12.3,11.609],[12.275,11.694],[12.224,11.633],[12.178,11.658],[12.248,11.799],[12.25,12.005],[12.303,12.219],[12.304,12.314],[12.261,12.423],[12.389,12.508],[12.494,12.687],[12.378,12.877],[12.394,13.077],[12.278,13.081],[12.257,13.114],[12.178,13.125],[12.178,13.098],[12.085,13.108],[11.879,13.249],[11.485,13.366],[11.222,13.374]]],"crs":null},"type":"Feature","properties":{"adm1_pcode":"NG036","adm1_en":"Yobe"}},{"geometry":{"type":"Polygon","coordinates":[[[6.849,13.082],[6.793,13.161],[6.623,13.067],[6.27,13.156],[6.254,13.032],[6.152,13.075],[6.02,13.009],[6.036,12.742],[5.813,12.84],[5.709,12.805],[5.686,12.709],[5.765,12.424],[5.726,12.271],[5.653,12.292],[5.438,12.253],[5.215,12.308],[5.118,12.279],[4.982,12.301],[4.95,12.246],[4.928,11.741],[5.139,11.722],[5.173,11.783],[5.222,11.754],[5.298,11.787],[5.353,11.704],[5.443,11.703],[5.462,11.666],[5.56,11.686],[5.672,11.66],[5.766,11.694],[5.839,11.634],[5.824,11.482],[6.009,11.48],[6.149,11.346],[6.129,11.254],[6.054,11.24],[6.009,11.141],[6.053,11.043],[6.146,10.957],[6.161,10.866],[6.206,10.863],[6.234,10.945],[6.323,11.026],[6.411,11.03],[6.458,10.999],[6.676,11.057],[6.734,11.148],[6.754,11.263],[6.889,11.381],[6.904,11.553],[6.852,11.621],[6.897,11.795],[7.055,11.801],[7.106,11.831],[7.144,11.911],[7.242,11.933],[7.091,12.064],[7.153,12.184],[7.054,12.516],[7.023,12.832],[7.048,12.999],[6.928,12.99],[6.849,13.082]]],"crs":null},"type":"Feature","properties":{"adm1_pcode":"NG037","adm1_en":"Zamfara"}}],"type":"FeatureCollection","properties":{"exceededTransferLimit":false}}